[
    {
        "Altitude(m)": 622200.0821523429,
        "Argument of Periapsis(deg)": 0.0,
        "Eccentricity": 0.0,
        "Inclination(deg)": 60.0,
        "Latitude(deg)": -52.16246909358067,
        "Longitude(deg)": 132.36067968501936,
        "Mean Anomaly(deg)": -65.45449999999992,
        "RAAN(deg)": 280.0,
        "Satellite Name": "Test1 1250",
        "Satellite Number": 1250,
        "Semi-Major Axis(m)": 6980739.136638005,
        "Time(s)": 0
    },
    {
        "Altitude(m)": 622058.2501025491,
        "Argument of Periapsis(deg)": 0.00010418945913296404,
        "Eccentricity": 0.0,
        "Inclination(deg)": 60.0,
        "Latitude(deg)": -51.79921950983302,
        "Longitude(deg)": 133.12873734859238,
        "Mean Anomaly(deg)": -64.83439385453808,
        "RAAN(deg)": 279.99957995086027,
        "Satellite Name": "Test1 1250",
        "Satellite Number": 1250,
        "Semi-Major Axis(m)": 6980739.136638005,
        "Time(s)": 10
    },
    {
        "Altitude(m)": 621913.6847698671,
        "Argument of Periapsis(deg)": 0.0002083789182659281,
        "Eccentricity": 0.0,
        "Inclination(deg)": 60.0,
        "Latitude(deg)": -51.430458348465926,
        "Longitude(deg)": 133.88381630673558,
        "Mean Anomaly(deg)": -64.21428770907633,
        "RAAN(deg)": 279.9991599017205,
        "Satellite Name": "Test1 1250",
        "Satellite Number": 1250,
        "Semi-Major Axis(m)": 6980739.136638005,
        "Time(s)": 20
    },
    {
        "Altitude(m)": 621766.4425935706,
        "Argument of Periapsis(deg)": 0.00031256837739889213,
        "Eccentricity": 0.0,
        "Inclination(deg)": 60.0,
        "Latitude(deg)": -51.05634272961535,
        "Longitude(deg)": 134.62610625377127,
        "Mean Anomaly(deg)": -63.59418156361443,
        "RAAN(deg)": 279.9987398525808,
        "Satellite Name": "Test1 1250",
        "Satellite Number": 1250,
        "Semi-Major Axis(m)": 6980739.136638005,
        "Time(s)": 30
    },
    {
        "Altitude(m)": 621616.5810293426,
        "Argument of Periapsis(deg)": 0.0004167578365318562,
        "Eccentricity": 0.0,
        "Inclination(deg)": 60.0,
        "Latitude(deg)": -50.67702608293146,
        "Longitude(deg)": 135.35580464955552,
        "Mean Anomaly(deg)": -62.974075418152665,
        "RAAN(deg)": 279.99831980344106,
        "Satellite Name": "Test1 1250",
        "Satellite Number": 1250,
        "Semi-Major Axis(m)": 6980739.136638005,
        "Time(s)": 40
    },
    {
        "Altitude(m)": 621464.1585246649,
        "Argument of Periapsis(deg)": 0.0005209472956648203,
        "Eccentricity": 0.0,
        "Inclination(deg)": 60.0,
        "Latitude(deg)": -50.29265812057056,
        "Longitude(deg)": 136.07311466965146,
        "Mean Anomaly(deg)": -62.353969272690826,
        "RAAN(deg)": 279.9978997543013,
        "Satellite Name": "Test1 1250",
        "Satellite Number": 1250,
        "Semi-Major Axis(m)": 6980739.136638005,
        "Time(s)": 50
    },
    {
        "Altitude(m)": 621309.2344937702,
        "Argument of Periapsis(deg)": 0.0006251367547977843,
        "Eccentricity": 0.0,
        "Inclination(deg)": 60.0,
        "Latitude(deg)": -49.90338482474447,
        "Longitude(deg)": 136.77824473771676,
        "Mean Anomaly(deg)": -61.73386312722907,
        "RAAN(deg)": 279.9974797051615,
        "Satellite Name": "Test1 1250",
        "Satellite Number": 1250,
        "Semi-Major Axis(m)": 6980739.136638005,
        "Time(s)": 60
    },
    {
        "Altitude(m)": 621151.8692921643,
        "Argument of Periapsis(deg)": 0.0007293262139307483,
        "Eccentricity": 0.0,
        "Inclination(deg)": 60.0,
        "Latitude(deg)": -49.50934844842024,
        "Longitude(deg)": 137.47140812583342,
        "Mean Anomaly(deg)": -61.11375698176716,
        "RAAN(deg)": 279.9970596560218,
        "Satellite Name": "Test1 1250",
        "Satellite Number": 1250,
        "Semi-Major Axis(m)": 6980739.136638005,
        "Time(s)": 70
    },
    {
        "Altitude(m)": 620992.124190717,
        "Argument of Periapsis(deg)": 0.0008335156730637124,
        "Eccentricity": 0.0,
        "Inclination(deg)": 60.0,
        "Latitude(deg)": -49.110687527837904,
        "Longitude(deg)": 138.15282110808292,
        "Mean Anomaly(deg)": -60.493650836305406,
        "RAAN(deg)": 279.996639606882,
        "Satellite Name": "Test1 1250",
        "Satellite Number": 1250,
        "Semi-Major Axis(m)": 6980739.136638005,
        "Time(s)": 80
    },
    {
        "Altitude(m)": 620830.0613493482,
        "Argument of Periapsis(deg)": 0.0009377051321966765,
        "Eccentricity": 0.0,
        "Inclination(deg)": 60.0,
        "Latitude(deg)": -48.70753690558805,
        "Longitude(deg)": 138.8227026909571,
        "Mean Anomaly(deg)": -59.873544690843566,
        "RAAN(deg)": 279.9962195577423,
        "Satellite Name": "Test1 1250",
        "Satellite Number": 1250,
        "Semi-Major Axis(m)": 6980739.136638005,
        "Time(s)": 90
    },
    {
        "Altitude(m)": 620665.7437903082,
        "Argument of Periapsis(deg)": 0.0010418945913296407,
        "Eccentricity": 0.0,
        "Inclination(deg)": 60.0,
        "Latitude(deg)": -48.30002776306598,
        "Longitude(deg)": 139.48127440531067,
        "Mean Anomaly(deg)": -59.253438545381705,
        "RAAN(deg)": 279.99579950860254,
        "Satellite Name": "Test1 1250",
        "Satellite Number": 1250,
        "Semi-Major Axis(m)": 6980739.136638005,
        "Time(s)": 100
    },
    {
        "Altitude(m)": 620499.2353710539,
        "Argument of Periapsis(deg)": 0.0011460840504626045,
        "Eccentricity": 0.0,
        "Inclination(deg)": 60.0,
        "Latitude(deg)": -47.88828766119207,
        "Longitude(deg)": 140.12875864437373,
        "Mean Anomaly(deg)": -58.6333323999199,
        "RAAN(deg)": 279.9953794594628,
        "Satellite Name": "Test1 1250",
        "Satellite Number": 1250,
        "Semi-Major Axis(m)": 6980739.136638005,
        "Time(s)": 110
    },
    {
        "Altitude(m)": 620330.6007567554,
        "Argument of Periapsis(deg)": 0.0012502735095955685,
        "Eccentricity": 0.0,
        "Inclination(deg)": 60.0,
        "Latitude(deg)": -47.472440588371256,
        "Longitude(deg)": 140.7653785708071,
        "Mean Anomaly(deg)": -58.01322625445805,
        "RAAN(deg)": 279.9949594103231,
        "Satellite Name": "Test1 1250",
        "Satellite Number": 1250,
        "Semi-Major Axis(m)": 6980739.136638005,
        "Time(s)": 120
    },
    {
        "Altitude(m)": 620159.9053924432,
        "Argument of Periapsis(deg)": 0.0013544629687285324,
        "Eccentricity": 0.0,
        "Inclination(deg)": 60.0,
        "Latitude(deg)": -47.052607014735656,
        "Longitude(deg)": 141.39135807708286,
        "Mean Anomaly(deg)": -57.3931201089962,
        "RAAN(deg)": 279.99453936118334,
        "Satellite Name": "Test1 1250",
        "Satellite Number": 1250,
        "Semi-Major Axis(m)": 6980739.136638005,
        "Time(s)": 130
    },
    {
        "Altitude(m)": 619987.215474758,
        "Argument of Periapsis(deg)": 0.0014586524278614966,
        "Eccentricity": 0.0,
        "Inclination(deg)": 60.0,
        "Latitude(deg)": -46.628903951784906,
        "Longitude(deg)": 142.00692028342368,
        "Mean Anomaly(deg)": -56.773013963534346,
        "RAAN(deg)": 279.99411931204355,
        "Satellite Name": "Test1 1250",
        "Satellite Number": 1250,
        "Semi-Major Axis(m)": 6980739.136638005,
        "Time(s)": 140
    },
    {
        "Altitude(m)": 619812.5979234029,
        "Argument of Periapsis(deg)": 0.0015628418869944607,
        "Eccentricity": 0.0,
        "Inclination(deg)": 60.0,
        "Latitude(deg)": -46.20144501661877,
        "Longitude(deg)": 142.61228759613428,
        "Mean Anomaly(deg)": -56.15290781807254,
        "RAAN(deg)": 279.9936992629039,
        "Satellite Name": "Test1 1250",
        "Satellite Number": 1250,
        "Semi-Major Axis(m)": 6980739.136638005,
        "Time(s)": 150
    },
    {
        "Altitude(m)": 619636.1203522164,
        "Argument of Periapsis(deg)": 0.0016670313461274247,
        "Eccentricity": 0.0,
        "Inclination(deg)": 60.0,
        "Latitude(deg)": -45.770340500016665,
        "Longitude(deg)": 143.20768181056607,
        "Mean Anomaly(deg)": -55.53280167261069,
        "RAAN(deg)": 279.9932792137641,
        "Satellite Name": "Test1 1250",
        "Satellite Number": 1250,
        "Semi-Major Axis(m)": 6980739.136638005,
        "Time(s)": 160
    },
    {
        "Altitude(m)": 619457.8510399526,
        "Argument of Periapsis(deg)": 0.0017712208052603888,
        "Eccentricity": 0.0,
        "Inclination(deg)": 60.0,
        "Latitude(deg)": -45.335697437686655,
        "Longitude(deg)": 143.7933227429978,
        "Mean Anomaly(deg)": -54.912695527148834,
        "RAAN(deg)": 279.99285916462435,
        "Satellite Name": "Test1 1250",
        "Satellite Number": 1250,
        "Semi-Major Axis(m)": 6980739.136638005,
        "Time(s)": 170
    },
    {
        "Altitude(m)": 619277.85890072,
        "Argument of Periapsis(deg)": 0.001875410264393353,
        "Eccentricity": 0.0,
        "Inclination(deg)": 60.0,
        "Latitude(deg)": -44.89761968407125,
        "Longitude(deg)": 144.36942841439532,
        "Mean Anomaly(deg)": -54.29258938168699,
        "RAAN(deg)": 279.9924391154846,
        "Satellite Name": "Test1 1250",
        "Satellite Number": 1250,
        "Semi-Major Axis(m)": 6980739.136638005,
        "Time(s)": 180
    },
    {
        "Altitude(m)": 619096.2134541457,
        "Argument of Periapsis(deg)": 0.0019795997235263173,
        "Eccentricity": 0.0,
        "Inclination(deg)": 60.0,
        "Latitude(deg)": -44.45620798815293,
        "Longitude(deg)": 144.93621527048222,
        "Mean Anomaly(deg)": -53.67248323622518,
        "RAAN(deg)": 279.9920190663449,
        "Satellite Name": "Test1 1250",
        "Satellite Number": 1250,
        "Semi-Major Axis(m)": 6980739.136638005,
        "Time(s)": 190
    }
]